OBJECT_NAME,OBJECT_ID,EPOCH,MEAN_MOTION,ECCENTRICITY,INCLINATION,RA_OF_ASC_NODE,ARG_OF_PERICENTER,MEAN_ANOMALY,EPHEMERIS_TYPE,CLASSIFICATION_TYPE,NORAD_CAT_ID,ELEMENT_SET_NO,REV_AT_EPOCH,BSTAR,MEAN_MOTION_DOT,MEAN_MOTION_DDOT
SAUDISAT 2,2004-025F,2026-06-19T23:34:56.134560,14.56685199,.0023505,98.5507,171.0368,289.2174,70.6480,0,U,28371,999,16615,.49656119E-4,.173E-5,0
COSMOS 2407,2004-028A,2026-06-20T06:38:45.226176,13.76334991,.0037903,82.9607,72.5460,242.9756,238.6878,0,U,28380,999,10030,.44313E-4,.58E-6,0
COSMOS 2414,2005-002A,2026-06-20T08:21:34.199136,13.87926698,.0039288,82.9497,41.2553,322.1046,37.7352,0,U,28521,999,8425,.16359E-4,.35E-6,0
INMARSAT 4-F1,2005-009A,2026-06-20T08:32:38.552928,1.00271541,.0002706,5.1732,42.7714,45.6778,126.3856,0,U,28628,999,7770,0,.26E-6,0
HAMSAT (VO-52),2005-017B,2026-06-20T08:53:21.660576,15.09752898,.0019794,97.9902,194.5754,30.7445,329.4938,0,U,28650,999,14724,.20951E-3,.3325E-4,0
NOAA 18,2005-018A,2026-06-20T10:45:46.126656,14.13729855,.001504,98.8114,251.0782,138.7248,221.5065,0,U,28654,999,8677,.43006E-4,.38E-6,0
SJ-7,2005-024A,2026-06-19T23:37:17.649984,15.21578108,.00160718,97.7282,201.1631,28.7494,331.4624,0,U,28737,999,14845,.28829673E-3,.645E-4,0
CUBESAT XI-V,2005-043F,2026-06-20T09:24:49.638816,14.72638633,.0013858,98.2989,327.0811,190.3179,169.7745,0,U,28895,999,10222,.17435E-3,.1059E-4,0
CLOUDSAT,2006-016A,2026-06-20T09:08:06.476928,14.86399405,.0004487,98.3925,208.8483,335.7241,24.3761,0,U,29107,999,7498,.8837E-4,.719E-5,0
CALIPSO,2006-016B,2026-06-20T10:18:38.216736,14.69354704,.0000925,98.4468,187.2039,91.8299,268.3011,0,U,29108,999,7353,.11873E-3,.649E-5,0
HINODE (SOLAR-B),2006-041A,2026-06-20T10:56:12.194016,14.68626564,.0015947,98.0544,187.5601,278.4847,81.4551,0,U,29479,999,5535,.8926E-4,.47E-5,0
METOP-A,2006-044A,2026-06-20T09:13:34.216320,14.75986740,.0174871,98.3337,278.1857,59.4558,25.6162,0,U,29499,999,2592,.15627E-3,.1315E-4,0
SHIJIAN-6 02B (SJ-6 02B),2006-046B,2026-06-21T13:04:55.262784,15.01386974,.0015442,97.7157,201.5774,48.2115,312.0426,0,U,29506,999,7139,.10445E-3,.1289E-4,0
DMSP 5D-3 F17 (USA 191),2006-050A,2026-06-20T10:08:16.734624,14.14993196,.001106,98.7378,177.9264,51.0273,309.1884,0,U,29522,999,1288,.15609E-4,-.13E-6,0
LAPAN-TUBSAT,2007-001A,2026-06-21T11:55:09.954336,14.85956536,.0012315,98.1347,171.8184,165.0172,195.1409,0,U,29709,999,5179,.13862E-3,.1154E-4,0
HAIYANG-1B,2007-010A,2026-06-20T10:20:43.240992,14.31027586,.0013231,98.3495,153.1505,186.4668,173.6347,0,U,31113,999,110,.41288E-4,.67E-6,0
BEIDOU-2 M1,2007-011A,2026-06-18T12:10:21.238464,1.77349429,.00017602,50.9302,219.2344,332.5646,27.5055,0,U,31115,999,7617,0,.25E-6,0
CAPE-1,2007-012P,2026-06-20T10:46:26.541984,14.64882582,.0084751,98.4462,146.0305,61.4869,299.4834,0,U,31130,999,1883,.218E-3,.1173E-4,0
CBERS 2B,2007-042A,2026-06-20T10:41:26.441088,14.41477622,.0030362,98.3924,116.0380,327.1290,147.7512,0,U,32062,999,98515,.69625E-4,.184E-5,0
COSMO-SKYMED 2,2007-059A,2026-06-21T11:33:40.285728,14.82157909,.0001333,97.8888,356.0172,89.2119,270.9247,0,U,32376,999,264,.41513E-4,.278E-5,0
CARTOSAT-2A,2008-021A,2026-06-21T12:15:50.063904,14.79246926,.001333,97.7628,221.0728,96.4021,263.8709,0,U,32783,999,97944,.17696E-3,.1267E-4,0
CUTE-1.7+APD II (CO-65),2008-021C,2026-06-20T10:20:12.804864,15.09477800,.0009448,97.8278,152.9166,28.6866,331.4880,0,U,32785,999,98568,.29901E-3,.4727E-4,0
SEEDS II (CO-66),2008-021J,2026-06-19T22:37:30.143136,15.32829868,.00006922,97.7524,168.9721,347.0777,13.0446,0,U,32791,999,98771,.50131848E-3,.15827E-3,0
YUBILEINY (RS30),2008-025A,2026-06-21T12:35:38.842368,12.43179579,.0018693,82.5044,352.7410,303.9019,56.0283,0,U,32953,999,82023,.17473E-3,.34E-6,0
FENGYUN 3A,2008-026A,2026-06-20T10:19:58.740672,14.19571712,.0009703,98.6883,112.2031,115.2254,244.9929,0,U,32958,999,93586,.46755E-4,.55E-6,0
HUANJING 1A (HJ-1A),2008-041A,2026-06-21T13:10:42.864672,14.83994384,.0020258,97.6688,158.2194,121.0821,239.2385,0,U,33320,999,95905,.92209E-4,.719E-5,0
HUANJING 1B (HJ-1B),2008-041B,2026-06-21T12:29:02.281056,14.83321897,.0036434,97.6522,161.3498,166.7610,193.4570,0,U,33321,999,95905,.89798E-4,.692E-5,0
SHIJIAN-6 03A (SJ-6 03A),2008-053A,2026-06-21T14:23:23.692128,15.17200507,.0011082,97.8410,206.0738,5.9489,354.1873,0,U,33408,999,96363,.19097E-3,.3727E-4,0
SHIJIAN-6 03B (SJ-6 03B),2008-053B,2026-06-21T11:45:31.294656,15.04311375,.0020306,97.8564,192.4536,30.5624,329.6780,0,U,33409,999,96339,.45859E-4,.576E-5,0
CHUANGXIN 1-02 (CX-1-02),2008-056B,2026-06-21T11:53:11.977728,14.30154410,.0015228,98.6132,198.7197,124.7085,235.5534,0,U,33434,999,91923,.96251E-4,.206E-5,0
