[
  {
    "name": "CUBESAT XI-V",
    "line1": "1 28895U 05043F   26171.39224119  .00001059  00000+0  17435-3 0  9999",
    "line2": "2 28895  98.2989 327.0811 0013858 190.3179 169.7745 14.72638633102225"
  },
  {
    "name": "CUTE-1.7+APD II (CO-65)",
    "line1": "1 32785U 08021C   26171.43070376  .00004727  00000+0  29901-3 0  9996",
    "line2": "2 32785  97.8278 152.9166 0009448  28.6866 331.4880 15.09477800985683"
  },
  {
    "name": "SEEDS II (CO-66)",
    "line1": "1 32791U 08021J   26170.94270999  .00015827  00000+0  50132-3 0  9994",
    "line2": "2 32791  97.7524 168.9721 0000692 347.0777  13.0446 15.32829868987716"
  },
  {
    "name": "YUBILEINY (RS30)",
    "line1": "1 32953U 08025A   26172.52475512  .00000034  00000+0  17473-3 0  9997",
    "line2": "2 32953  82.5044 352.7410 0018693 303.9019  56.0283 12.43179579820238"
  },
  {
    "name": "INMARSAT 4-F1",
    "line1": "1 28628U 05009A   26171.35600177  .00000026  00000+0  00000+0 0  9992",
    "line2": "2 28628   5.1732  42.7714 0002706  45.6778 126.3856  1.00271541 77706"
  },
  {
    "name": "SAUDISAT 2",
    "line1": "1 28371U 04025F   26170.98259415  .00000173  00000+0  49656-4 0  9995",
    "line2": "2 28371  98.5507 171.0368 0023505 289.2174  70.6480 14.56685199166159"
  },
  {
    "name": "COSMOS 2407",
    "line1": "1 28380U 04028A   26171.27691234  .00000058  00000+0  44313-4 0  9997",
    "line2": "2 28380  82.9607  72.5460 0037903 242.9756 238.6878 13.76334991100308"
  },
  {
    "name": "COSMOS 2414",
    "line1": "1 28521U 05002A   26171.34831249  .00000035  00000+0  16359-4 0  9991",
    "line2": "2 28521  82.9497  41.2553 0039288 322.1046  37.7352 13.87926698 84252"
  },
  {
    "name": "HAMSAT (VO-52)",
    "line1": "1 28650U 05017B   26171.37038959  .00003325  00000+0  20951-3 0  9997",
    "line2": "2 28650  97.9902 194.5754 0019794  30.7445 329.4938 15.09752898147247"
  },
  {
    "name": "NOAA 18",
    "line1": "1 28654U 05018A   26171.44845054  .00000038  00000+0  43006-4 0  9997",
    "line2": "2 28654  98.8114 251.0782 0015040 138.7248 221.5065 14.13729855 86770"
  },
  {
    "name": "SJ-7",
    "line1": "1 28737U 05024A   26170.98423206  .00006450  00000+0  28830-3 0  9996",
    "line2": "2 28737  97.7282 201.1631 0016071  28.7494 331.4624 15.21578108148450"
  },
  {
    "name": "CLOUDSAT",
    "line1": "1 29107U 06016A   26171.38063052  .00000719  00000+0  88370-4 0  9992",
    "line2": "2 29107  98.3925 208.8483 0004487 335.7241  24.3761 14.86399405 74988"
  },
  {
    "name": "CALIPSO",
    "line1": "1 29108U 06016B   26171.42960899  .00000649  00000+0  11873-3 0  9998",
    "line2": "2 29108  98.4468 187.2039 0000925  91.8299 268.3011 14.69354704 73537"
  },
  {
    "name": "HINODE (SOLAR-B)",
    "line1": "1 29479U 06041A   26171.45569669  .00000470  00000+0  89260-4 0  9998",
    "line2": "2 29479  98.0544 187.5601 0015947 278.4847  81.4551 14.68626564 55357"
  },
  {
    "name": "METOP-A",
    "line1": "1 29499U 06044A   26171.38442380  .00001315  00000+0  15627-3 0  9999",
    "line2": "2 29499  98.3337 278.1857 0174871  59.4558  25.6162 14.75986740 25921"
  },
  {
    "name": "SHIJIAN-6 02B (SJ-6 02B)",
    "line1": "1 29506U 06046B   26172.54508406  .00001289  00000+0  10445-3 0  9994",
    "line2": "2 29506  97.7157 201.5774 0015442  48.2115 312.0426 15.01386974 71395"
  },
  {
    "name": "DMSP 5D-3 F17 (USA 191)",
    "line1": "1 29522U 06050A   26171.42241591 -.00000013  00000+0  15609-4 0  9995",
    "line2": "2 29522  98.7378 177.9264 0011060  51.0273 309.1884 14.14993196 12885"
  },
  {
    "name": "LAPAN-TUBSAT",
    "line1": "1 29709U 07001A   26172.49664299  .00001154  00000+0  13862-3 0  9995",
    "line2": "2 29709  98.1347 171.8184 0012315 165.0172 195.1409 14.85956536 51798"
  },
  {
    "name": "HAIYANG-1B",
    "line1": "1 31113U 07010A   26171.43105603  .00000067  00000+0  41288-4 0  9995",
    "line2": "2 31113  98.3495 153.1505 0013231 186.4668 173.6347 14.31027586  1108"
  },
  {
    "name": "BEIDOU-2 M1",
    "line1": "1 31115U 07011A   26169.50719026  .00000025  00000+0  00000+0 0  9999",
    "line2": "2 31115  50.9302 219.2344 0001760 332.5646  27.5055  1.77349429 76171"
  },
  {
    "name": "CAPE-1",
    "line1": "1 31130U 07012P   26171.44891831  .00001173  00000+0  21800-3 0  9998",
    "line2": "2 31130  98.4462 146.0305 0084751  61.4869 299.4834 14.64882582 18838"
  },
  {
    "name": "CBERS 2B",
    "line1": "1 32062U 07042A   26171.44544492  .00000184  00000+0  69625-4 0  9993",
    "line2": "2 32062  98.3924 116.0380 0030362 327.1290 147.7512 14.41477622985150"
  },
  {
    "name": "COSMO-SKYMED 2",
    "line1": "1 32376U 07059A   26172.48171627  .00000278  00000+0  41513-4 0  9990",
    "line2": "2 32376  97.8888 356.0172 0001333  89.2119 270.9247 14.82157909  2644"
  },
  {
    "name": "CARTOSAT-2A",
    "line1": "1 32783U 08021A   26172.51099611  .00001267  00000+0  17696-3 0  9991",
    "line2": "2 32783  97.7628 221.0728 0013330  96.4021 263.8709 14.79246926979446"
  },
  {
    "name": "FENGYUN 3A",
    "line1": "1 32958U 08026A   26171.43054098  .00000055  00000+0  46755-4 0  9993",
    "line2": "2 32958  98.6883 112.2031 0009703 115.2254 244.9929 14.19571712935868"
  },
  {
    "name": "HUANJING 1A (HJ-1A)",
    "line1": "1 33320U 08041A   26172.54910723  .00000719  00000+0  92209-4 0  9995",
    "line2": "2 33320  97.6688 158.2194 0020258 121.0821 239.2385 14.83994384959052"
  },
  {
    "name": "HUANJING 1B (HJ-1B)",
    "line1": "1 33321U 08041B   26172.52016529  .00000692  00000+0  89798-4 0  9994",
    "line2": "2 33321  97.6522 161.3498 0036434 166.7610 193.4570 14.83321897959057"
  },
  {
    "name": "SHIJIAN-6 03A (SJ-6 03A)",
    "line1": "1 33408U 08053A   26172.59957977  .00003727  00000+0  19097-3 0  9997",
    "line2": "2 33408  97.8410 206.0738 0011082   5.9489 354.1873 15.17200507963638"
  },
  {
    "name": "SHIJIAN-6 03B (SJ-6 03B)",
    "line1": "1 33409U 08053B   26172.48994554  .00000576  00000+0  45859-4 0  9993",
    "line2": "2 33409  97.8564 192.4536 0020306  30.5624 329.6780 15.04311375963396"
  },
  {
    "name": "CHUANGXIN 1-02 (CX-1-02)",
    "line1": "1 33434U 08056B   26172.49527752  .00000206  00000+0  96251-4 0  9999",
    "line2": "2 33434  98.6132 198.7197 0015228 124.7085 235.5534 14.30154410919239"
  }
]